{"type": "FeatureCollection", "features": [ {"type": "Feature", "properties": {"norad_id": 38006, "name": "COSMOS 2251 DEB", "group": "cosmos-2251-debris", "lat": 73.60998330804853, "lon": 107.79063507401577, "alt_km": 753.3546007672667, "timestamp": "2025-12-17T23:38:07.251488+00:00", "meta": {"OBJECT_NAME": "COSMOS 2251 DEB", "OBJECT_ID": "1993-036BRH", "EPOCH": "2025-12-10T03:36:37.956384", "MEAN_MOTION": 14.45867865, "ECCENTRICITY": 0.00758537, "INCLINATION": 73.8744, "RA_OF_ASC_NODE": 42.933, "ARG_OF_PERICENTER": 348.3853, "MEAN_ANOMALY": 11.555, "EPHEMERIS_TYPE": 0, "CLASSIFICATION_TYPE": "U", "NORAD_CAT_ID": 38006, "ELEMENT_SET_NO": 999, "REV_AT_EPOCH": 62922, "BSTAR": 0.0047338847, "MEAN_MOTION_DOT": 0.00017443, "MEAN_MOTION_DDOT": 0}, "tle": {"line1": "1 38006U 93036BRH 25344.15043931  .00017443  00000+0  47339-2 0  9998", "line2": "2 38006  73.8744  42.9330 0075853 348.3853  11.5550 14.45867865629227"}}, "geometry": {"type": "Point", "coordinates": [107.79063507401577, 73.60998330804853]}}, {"type": "Feature", "properties": {"norad_id": 38054, "name": "COSMOS 2251 DEB", "group": "cosmos-2251-debris", "lat": 59.48439604711238, "lon": -73.5678612586344, "alt_km": 1282.3791984114814, "timestamp": "2025-12-17T23:38:07.251498+00:00", "meta": {"OBJECT_NAME": "COSMOS 2251 DEB", "OBJECT_ID": "1993-036BRL", "EPOCH": "2025-12-17T04:45:19.529280", "MEAN_MOTION": 13.62365637, "ECCENTRICITY": 0.03581672, "INCLINATION": 73.9558, "RA_OF_ASC_NODE": 258.4958, "ARG_OF_PERICENTER": 235.7541, "MEAN_ANOMALY": 291.9092, "EPHEMERIS_TYPE": 0, "CLASSIFICATION_TYPE": "U", "NORAD_CAT_ID": 38054, "ELEMENT_SET_NO": 999, "REV_AT_EPOCH": 67240, "BSTAR": 0.0016404569, "MEAN_MOTION_DOT": 1.932e-05, "MEAN_MOTION_DDOT": 0}, "tle": {"line1": "1 38054U 93036BRL 25351.19814270  .00001932  00000+0  16405-2 0  9991", "line2": "2 38054  73.9558 258.4958 0358167 235.7541 291.9092 13.62365637672400"}}, "geometry": {"type": "Point", "coordinates": [-73.5678612586344, 59.48439604711238]}}, {"type": "Feature", "properties": {"norad_id": 38055, "name": "COSMOS 2251 DEB", "group": "cosmos-2251-debris", "lat": -0.2949214218360474, "lon": -163.62707588927154, "alt_km": 604.3388769860303, "timestamp": "2025-12-17T23:38:07.251508+00:00", "meta": {"OBJECT_NAME": "COSMOS 2251 DEB", "OBJECT_ID": "1993-036BRM", "EPOCH": "2025-12-17T08:11:30.244992", "MEAN_MOTION": 14.7702463, "ECCENTRICITY": 0.00659373, "INCLINATION": 74.0086, "RA_OF_ASC_NODE": 197.7207, "ARG_OF_PERICENTER": 324.2561, "MEAN_ANOMALY": 214.9327, "EPHEMERIS_TYPE": 0, "CLASSIFICATION_TYPE": "U", "NORAD_CAT_ID": 38055, "ELEMENT_SET_NO": 999, "REV_AT_EPOCH": 60750, "BSTAR": 0.00054119161, "MEAN_MOTION_DOT": 3.922e-05, "MEAN_MOTION_DDOT": 0}, "tle": {"line1": "1 38055U 93036BRM 25351.34132228  .00003922  00000+0  54119-3 0  9991", "line2": "2 38055  74.0086 197.7207 0065937 324.2561 214.9327 14.77024630607504"}}, "geometry": {"type": "Point", "coordinates": [-163.62707588927154, -0.2949214218360474]}}, {"type": "Feature", "properties": {"norad_id": 38060, "name": "COSMOS 2251 DEB", "group": "cosmos-2251-debris", "lat": -23.188325095230546, "lon": -81.80147988442687, "alt_km": 661.390597023611, "timestamp": "2025-12-17T23:38:07.251518+00:00", "meta": {"OBJECT_NAME": "COSMOS 2251 DEB", "OBJECT_ID": "1993-036BRS", "EPOCH": "2025-12-17T02:25:21.756000", "MEAN_MOTION": 14.63882865, "ECCENTRICITY": 0.0058311, "INCLINATION": 74.0428, "RA_OF_ASC_NODE": 286.9344, "ARG_OF_PERICENTER": 31.8298, "MEAN_ANOMALY": 328.6371, "EPHEMERIS_TYPE": 0, "CLASSIFICATION_TYPE": "U", "NORAD_CAT_ID": 38060, "ELEMENT_SET_NO": 999, "REV_AT_EPOCH": 72028, "BSTAR": 0.00044506343, "MEAN_MOTION_DOT": 2.353e-05, "MEAN_MOTION_DDOT": 0}, "tle": {"line1": "1 38060U 93036BRS 25351.10094625  .00002353  00000+0  44506-3 0  9995", "line2": "2 38060  74.0428 286.9344 0058311  31.8298 328.6371 14.63882865720289"}}, "geometry": {"type": "Point", "coordinates": [-81.80147988442687, -23.188325095230546]}}, {"type": "Feature", "properties": {"norad_id": 38062, "name": "COSMOS 2251 DEB", "group": "cosmos-2251-debris", "lat": 7.508466141399333, "lon": 97.70798268298196, "alt_km": 588.5731087470613, "timestamp": "2025-12-17T23:38:07.251528+00:00", "meta": {"OBJECT_NAME": "COSMOS 2251 DEB", "OBJECT_ID": "1993-036BRU", "EPOCH": "2025-12-17T02:04:28.793568", "MEAN_MOTION": 14.95076851, "ECCENTRICITY": 0.00127653, "INCLINATION": 74.0085, "RA_OF_ASC_NODE": 281.6883, "ARG_OF_PERICENTER": 50.5623, "MEAN_ANOMALY": 328.1429, "EPHEMERIS_TYPE": 0, "CLASSIFICATION_TYPE": "U", "NORAD_CAT_ID": 38062, "ELEMENT_SET_NO": 999, "REV_AT_EPOCH": 63095, "BSTAR": 0.0018936514, "MEAN_MOTION_DOT": 0.00020809, "MEAN_MOTION_DDOT": 0}, "tle": {"line1": "1 38062U 93036BRU 25351.08644437  .00020809  00000+0  18937-2 0  9990", "line2": "2 38062  74.0085 281.6883 0012765  50.5623 328.1429 14.95076851630951"}}, "geometry": {"type": "Point", "coordinates": [97.70798268298196, 7.508466141399333]}}, {"type": "Feature", "properties": {"norad_id": 38064, "name": "COSMOS 2251 DEB", "group": "cosmos-2251-debris", "lat": 71.51329456547795, "lon": 173.15697361072932, "alt_km": 727.3847668487806, "timestamp": "2025-12-17T23:38:07.251538+00:00", "meta": {"OBJECT_NAME": "COSMOS 2251 DEB", "OBJECT_ID": "1993-036BRW", "EPOCH": "2025-12-17T15:01:13.287072", "MEAN_MOTION": 14.56341127, "ECCENTRICITY": 0.00473106, "INCLINATION": 74.022, "RA_OF_ASC_NODE": 114.8597, "ARG_OF_PERICENTER": 233.6527, "MEAN_ANOMALY": 126.0266, "EPHEMERIS_TYPE": 0, "CLASSIFICATION_TYPE": "U", "NORAD_CAT_ID": 38064, "ELEMENT_SET_NO": 999, "REV_AT_EPOCH": 71936, "BSTAR": 0.0007632935, "MEAN_MOTION_DOT": 3.406e-05, "MEAN_MOTION_DDOT": 0}, "tle": {"line1": "1 38064U 93036BRW 25351.62584823  .00003406  00000+0  76329-3 0  9998", "line2": "2 38064  74.0220 114.8597 0047310 233.6527 126.0266 14.56341127719369"}}, "geometry": {"type": "Point", "coordinates": [173.15697361072932, 71.51329456547795]}}, {"type": "Feature", "properties": {"norad_id": 38067, "name": "COSMOS 2251 DEB", "group": "cosmos-2251-debris", "lat": 26.055864749851875, "lon": 76.41081429174986, "alt_km": 698.0451158511205, "timestamp": "2025-12-17T23:38:07.251548+00:00", "meta": {"OBJECT_NAME": "COSMOS 2251 DEB", "OBJECT_ID": "1993-036BRZ", "EPOCH": "2025-12-14T13:35:01.091904", "MEAN_MOTION": 14.61135602, "ECCENTRICITY": 0.00694851, "INCLINATION": 74.0173, "RA_OF_ASC_NODE": 271.0073, "ARG_OF_PERICENTER": 58.167, "MEAN_ANOMALY": 117.7661, "EPHEMERIS_TYPE": 0, "CLASSIFICATION_TYPE": "U", "NORAD_CAT_ID": 38067, "ELEMENT_SET_NO": 999, "REV_AT_EPOCH": 62582, "BSTAR": 0.00041702153, "MEAN_MOTION_DOT": 2.092e-05, "MEAN_MOTION_DDOT": 0}, "tle": {"line1": "1 38067U 93036BRZ 25348.56598486  .00002092  00000+0  41702-3 0  9997", "line2": "2 38067  74.0173 271.0073 0069485  58.1670 117.7661 14.61135602625828"}}, "geometry": {"type": "Point", "coordinates": [76.41081429174986, 26.055864749851875]}}, {"type": "Feature", "properties": {"norad_id": 38068, "name": "COSMOS 2251 DEB", "group": "cosmos-2251-debris", "lat": 17.687198225303817, "lon": 113.37544175391133, "alt_km": 783.9639600222536, "timestamp": "2025-12-17T23:38:07.251558+00:00", "meta": {"OBJECT_NAME": "COSMOS 2251 DEB", "OBJECT_ID": "1993-036BSA", "EPOCH": "2025-11-26T00:12:22.263264", "MEAN_MOTION": 14.35960004, "ECCENTRICITY": 0.00240903, "INCLINATION": 74.0219, "RA_OF_ASC_NODE": 338.9788, "ARG_OF_PERICENTER": 72.1007, "MEAN_ANOMALY": 288.2769, "EPHEMERIS_TYPE": 0, "CLASSIFICATION_TYPE": "U", "NORAD_CAT_ID": 38068, "ELEMENT_SET_NO": 999, "REV_AT_EPOCH": 66406, "BSTAR": 0.00028750999, "MEAN_MOTION_DOT": 8.11e-06, "MEAN_MOTION_DDOT": 0}, "tle": {"line1": "1 38068U 93036BSA 25330.00859101  .00000811  00000+0  28751-3 0  9998", "line2": "2 38068  74.0219 338.9788 0024090  72.1007 288.2769 14.35960004664064"}}, "geometry": {"type": "Point", "coordinates": [113.37544175391133, 17.687198225303817]}}, {"type": "Feature", "properties": {"norad_id": 38197, "name": "COSMOS 2251 DEB", "group": "cosmos-2251-debris", "lat": 29.26342759032974, "lon": 157.45410705376494, "alt_km": 619.7770520392905, "timestamp": "2025-12-17T23:38:07.251568+00:00", "meta": {"OBJECT_NAME": "COSMOS 2251 DEB", "OBJECT_ID": "1993-036BSM", "EPOCH": "2025-12-17T06:39:49.042944", "MEAN_MOTION": 14.74260895, "ECCENTRICITY": 0.01254717, "INCLINATION": 73.936, "RA_OF_ASC_NODE": 348.1343, "ARG_OF_PERICENTER": 224.4902, "MEAN_ANOMALY": 134.6144, "EPHEMERIS_TYPE": 0, "CLASSIFICATION_TYPE": "U", "NORAD_CAT_ID": 38197, "ELEMENT_SET_NO": 999, "REV_AT_EPOCH": 85822, "BSTAR": 0.0026828231, "MEAN_MOTION_DOT": 0.00020164, "MEAN_MOTION_DDOT": 0}, "tle": {"line1": "1 38197U 93036BSM 25351.27765096  .00020164  00000+0  26828-2 0  9997", "line2": "2 38197  73.9360 348.1343 0125471 224.4902 134.6144 14.74260895858221"}}, "geometry": {"type": "Point", "coordinates": [157.45410705376494, 29.26342759032974]}}, {"type": "Feature", "properties": {"norad_id": 38199, "name": "COSMOS 2251 DEB", "group": "cosmos-2251-debris", "lat": 38.69665835825422, "lon": 66.89829257123785, "alt_km": 877.3754298602771, "timestamp": "2025-12-17T23:38:07.251577+00:00", "meta": {"OBJECT_NAME": "COSMOS 2251 DEB", "OBJECT_ID": "1993-036BSP", "EPOCH": "2025-12-17T12:53:35.661984", "MEAN_MOTION": 13.64800412, "ECCENTRICITY": 0.0369854, "INCLINATION": 73.956, "RA_OF_ASC_NODE": 54.3066, "ARG_OF_PERICENTER": 339.8332, "MEAN_ANOMALY": 18.8482, "EPHEMERIS_TYPE": 0, "CLASSIFICATION_TYPE": "U", "NORAD_CAT_ID": 38199, "ELEMENT_SET_NO": 999, "REV_AT_EPOCH": 61087, "BSTAR": 0.00048545841, "MEAN_MOTION_DOT": 6e-06, "MEAN_MOTION_DDOT": 0}, "tle": {"line1": "1 38199U 93036BSP 25351.53721831  .00000600  00000+0  48546-3 0  9992", "line2": "2 38199  73.9560  54.3066 0369854 339.8332  18.8482 13.64800412610874"}}, "geometry": {"type": "Point", "coordinates": [66.89829257123785, 38.69665835825422]}}]}